IRIDIUM 63              
1 25286U 98021B   25356.93475984  .00000376  00000+0  12100-3 0  9995
2 25286  86.3980   2.9355 0002332  85.6279 274.5185 14.36743446450946
IRIDIUM 69              
1 25319U 98026A   25356.57395477  .00000361  00000+0  10578-3 0  9996
2 25319  86.3971  15.7803 0004477 107.5180 252.6509 14.41225178450197
IRIDIUM 71              
1 25320U 98026B   25356.76832463  .00000271  00000+0  77562-4 0  9997
2 25320  86.3971  10.3699 0002944 136.8863 223.2567 14.41323705450758
IRIDIUM 73              
1 25344U 98032C   25356.84044164  .00000580  00000+0  13851-3 0  9995
2 25344  86.4414 326.6958 0003009  85.4093 274.7457 14.52002477457933
IRIDIUM 82              
1 25467U 98051A   25356.80336613  .00046067  00000+0  83823-3 0  9997
2 25467  86.3595  16.0379 0057793 294.8443  64.6811 15.47432462452952
